[{"OBJECT_NAME":"NANOSATC-BR1","OBJECT_ID":"2014-033Q","EPOCH":"2026-03-09T23:35:03.168384","MEAN_MOTION":15.28136801,"ECCENTRICITY":0.00046435,"INCLINATION":98.0845,"RA_OF_ASC_NODE":92.7804,"ARG_OF_PERICENTER":147.6715,"MEAN_ANOMALY":212.4808,"EPHEMERIS_TYPE":0,"CLASSIFICATION_TYPE":"U","NORAD_CAT_ID":40024,"ELEMENT_SET_NO":999,"REV_AT_EPOCH":63881,"BSTAR":0.00074295057,"MEAN_MOTION_DOT":0.00020336,"MEAN_MOTION_DDOT":0},{"OBJECT_NAME":"STARLINK-33958","OBJECT_ID":"2025-093Q","EPOCH":"2026-03-09T09:30:19.335168","MEAN_MOTION":15.27582198,"ECCENTRICITY":0.00014715,"INCLINATION":43.0022,"RA_OF_ASC_NODE":79.8737,"ARG_OF_PERICENTER":260.8576,"MEAN_ANOMALY":99.2109,"EPHEMERIS_TYPE":0,"CLASSIFICATION_TYPE":"U","NORAD_CAT_ID":63850,"ELEMENT_SET_NO":999,"REV_AT_EPOCH":4776,"BSTAR":0.0011217485,"MEAN_MOTION_DOT":0.00030737,"MEAN_MOTION_DDOT":0}]
